<?xml version="1.0" encoding="UTF-8"?>
<kml xmlns="http://www.opengis.net/kml/2.2">
  <Document>
    <name>Unbenannte Ebene</name>
    <Style id="icon-1596-A52714-nodesc-normal">
      <IconStyle>
        <color>ff1427a5</color>
        <scale>1</scale>
        <Icon>
          <href>https://www.gstatic.com/mapspro/images/stock/503-wht-blank_maps.png</href>
        </Icon>
      </IconStyle>
      <LabelStyle>
        <scale>0</scale>
      </LabelStyle>
      <BalloonStyle>
        <text><![CDATA[<h3>$[name]</h3>]]></text>
      </BalloonStyle>
    </Style>
    <Style id="icon-1596-A52714-nodesc-highlight">
      <IconStyle>
        <color>ff1427a5</color>
        <scale>1</scale>
        <Icon>
          <href>https://www.gstatic.com/mapspro/images/stock/503-wht-blank_maps.png</href>
        </Icon>
      </IconStyle>
      <LabelStyle>
        <scale>1</scale>
      </LabelStyle>
      <BalloonStyle>
        <text><![CDATA[<h3>$[name]</h3>]]></text>
      </BalloonStyle>
    </Style>
    <StyleMap id="icon-1596-A52714-nodesc">
      <Pair>
        <key>normal</key>
        <styleUrl>#icon-1596-A52714-nodesc-normal</styleUrl>
      </Pair>
      <Pair>
        <key>highlight</key>
        <styleUrl>#icon-1596-A52714-nodesc-highlight</styleUrl>
      </Pair>
    </StyleMap>
    <Style id="icon-1899-0288D1-nodesc-normal">
      <IconStyle>
        <color>ffd18802</color>
        <scale>1</scale>
        <Icon>
          <href>https://www.gstatic.com/mapspro/images/stock/503-wht-blank_maps.png</href>
        </Icon>
        <hotSpot x="32" xunits="pixels" y="64" yunits="insetPixels"/>
      </IconStyle>
      <LabelStyle>
        <scale>0</scale>
      </LabelStyle>
      <BalloonStyle>
        <text><![CDATA[<h3>$[name]</h3>]]></text>
      </BalloonStyle>
    </Style>
    <Style id="icon-1899-0288D1-nodesc-highlight">
      <IconStyle>
        <color>ffd18802</color>
        <scale>1</scale>
        <Icon>
          <href>https://www.gstatic.com/mapspro/images/stock/503-wht-blank_maps.png</href>
        </Icon>
        <hotSpot x="32" xunits="pixels" y="64" yunits="insetPixels"/>
      </IconStyle>
      <LabelStyle>
        <scale>1</scale>
      </LabelStyle>
      <BalloonStyle>
        <text><![CDATA[<h3>$[name]</h3>]]></text>
      </BalloonStyle>
    </Style>
    <StyleMap id="icon-1899-0288D1-nodesc">
      <Pair>
        <key>normal</key>
        <styleUrl>#icon-1899-0288D1-nodesc-normal</styleUrl>
      </Pair>
      <Pair>
        <key>highlight</key>
        <styleUrl>#icon-1899-0288D1-nodesc-highlight</styleUrl>
      </Pair>
    </StyleMap>
    <Style id="line-E65100-2163-nodesc-normal">
      <LineStyle>
        <color>ff0051e6</color>
        <width>2.163</width>
      </LineStyle>
      <BalloonStyle>
        <text><![CDATA[<h3>$[name]</h3>]]></text>
      </BalloonStyle>
    </Style>
    <Style id="line-E65100-2163-nodesc-highlight">
      <LineStyle>
        <color>ff0051e6</color>
        <width>3.2445</width>
      </LineStyle>
      <BalloonStyle>
        <text><![CDATA[<h3>$[name]</h3>]]></text>
      </BalloonStyle>
    </Style>
    <StyleMap id="line-E65100-2163-nodesc">
      <Pair>
        <key>normal</key>
        <styleUrl>#line-E65100-2163-nodesc-normal</styleUrl>
      </Pair>
      <Pair>
        <key>highlight</key>
        <styleUrl>#line-E65100-2163-nodesc-highlight</styleUrl>
      </Pair>
    </StyleMap>
    <Placemark>
      <name>Path</name>
      <styleUrl>#line-E65100-2163-nodesc</styleUrl>
      <LineString>
        <tessellate>1</tessellate>
        <coordinates>
          6.1075983,49.7510048,0
          6.1240787,49.7217149,0
          6.1515449,49.7199394,0
          6.1693978,49.7297052,0
          6.2517969,49.7137246,0
          6.2888761,49.7261552,0
          6.3300755,49.72438,0
          6.3534216,49.7368078,0
          6.3905011,49.7341454,0
          6.4124743,49.7252685,0
          6.4440604,49.727932,0
          6.5113531,49.7110627,0
          6.529206,49.7172787,0
          6.5498059,49.7075107,0
          6.5800186,49.7172792,0
          6.6418168,49.762543,0
          6.6734028,49.7758479,0
          6.6981223,49.7785086,0
          6.7077353,49.787376,0
          6.7324552,49.7767352,0
          6.7599217,49.7634311,0
          6.7928811,49.7714144,0
          6.872533,49.7847174,0
          6.8986254,49.8130835,0
          6.9439445,49.8228308,0
          6.9508108,49.836119,0
          6.9837706,49.8201731,0
          7.026343,49.8387769,0
          7.1307147,49.8467484,0
          7.1554342,49.8502907,0
          7.2419522,49.8892374,0
          7.2570587,49.8892375,0
          7.4740406,49.9670373,0
          7.5166134,49.9652708,0
          7.5385865,49.9564363,0
          7.5907721,49.9776372,0
          7.6333453,49.9529028,0
          7.7171174,49.9493689,0
          7.7624369,49.9414155,0
          7.8915281,49.9590898,0
          7.9038876,49.970574,0
          7.9615668,49.9714577,0
          8.0439649,50.0067764,0
          8.1703094,50.0306023,0
          8.2197487,50.0297205,0
          8.2733083,50.0050129,0
          8.3529604,50.0129568,0
          8.4532114,50.0597079,0
          8.501277,50.0764567,0
          8.5465964,50.0764571,0
          8.5713159,50.0879134,0
          8.6372349,50.0896762,0
          8.678434,50.1090568,0
          8.7731926,50.1046536,0
          8.8349913,50.1266697,0
          8.955843,50.1249097,0
          9.0560942,50.1653942,0
          9.1014136,50.1618757,0
          9.1783185,50.1970542,0
          9.2167713,50.1979337,0
          9.2456104,50.2234212,0
          9.2648368,50.2225427,0
          9.3019158,50.2488954,0
          9.343115,50.2603106,0
          9.3925538,50.2919071,0
          9.4708322,50.3182217,0
          9.5312575,50.3471509,0
          9.6424955,50.3673037,0
          9.6919345,50.3839449,0
          9.755107,50.382194,0
          9.8443722,50.394453,0
          9.9707169,50.4093349,0
          10.022903,50.4005824,0
          10.054489,50.4145865,0
          10.1162879,50.4233373,0
          10.2302731,50.4198382,0
          10.2714723,50.4303375,0
          10.3236584,50.4259636,0
          10.3703512,50.4154639,0
          10.4348968,50.4303387,0
          10.4953226,50.4303392,0
          10.5269084,50.4539538,0
          10.5777207,50.4696905,0
          10.62716,50.4740611,0
          10.6752258,50.4854223,0
          10.7315314,50.5011486,0
          10.7727306,50.5142498,0
          10.8111832,50.5256012,0
          10.8592478,50.6049833,0
          10.9183001,50.6154418,0
          10.9375263,50.6311244,0
          10.9910854,50.6372222,0
          11.0226711,50.6659564,0
          11.0899633,50.6842331,0
          11.1352826,50.6842334,0
          11.1847218,50.6929342,0
          11.2314145,50.6972841,0
          11.254761,50.6877147,0
          11.3302927,50.7216352,0
          11.4429042,50.7424977,0
          11.473117,50.744236,0
          11.5019565,50.7511878,0
          11.5184359,50.7737734,0
          11.5445288,50.7772473,0
          11.573368,50.7989524,0
          11.6489002,50.8084999,0
          11.7258053,50.8379968,0
          11.8013376,50.839732,0
          11.83567,50.865742,0
          11.967508,50.8804754,0
          12.0526532,50.9055971,0
          12.2284369,50.935899,0
          12.4728859,51.0024925,0
          12.5690178,51.0145905,0
          12.6637765,51.0163191,0
          12.7077228,51.0076791,0
          12.7914943,51.0474117,0
          12.8684002,51.031869,0
          12.9384394,51.0310058,0
          13.0730241,51.0448234,0
          13.1210899,51.0543205,0
          13.1636628,51.0482776,0
          13.2062355,51.0517312,0
          13.235075,51.0595004,0
          13.2570482,51.0534581,0
          13.3147273,51.0603641,0
          13.4136062,51.0525959,0
          13.4328326,51.0482794,0
          13.4520589,51.0560492,0
          13.5729108,51.0534602,0
          13.6539367,51.038783,0
          13.6965093,51.0448276,0
          13.740455,51.0664084,0
          13.7981344,51.0664087,0
          13.8242274,51.0633883,0
          13.8780145,51.0611225,0
          13.8890009,51.0667324,0
          13.9247072,51.0611228,0
          13.9885663,51.0658701,0
          14.0338855,51.0805396,0
          14.1073574,51.1098644,0
          14.1506169,51.1094335,0
          14.1815162,51.1275367,0
          14.1876959,51.1387399,0
          14.3140403,51.1800822,0
          14.4300855,51.1818047,0
          14.558491,51.1512347,0
          14.6491297,51.1620019,0
          14.686896,51.1542505,0
          14.7377087,51.1572655,0
          14.7734151,51.1477902,0
          14.8043146,51.1512363,0
          14.8235412,51.1439136,0
          14.8530673,51.1490829,0
          14.9052534,51.1464987,0
          14.9656791,51.1572669,0
          14.9903988,51.1546831,0
          15.0309112,51.1852518,0
          15.1194898,51.2046164,0
          15.1462694,51.2067675,0
          15.1778553,51.2299926,0
          15.2053218,51.2196721,0
          15.2822274,51.2248332,0
          15.3296069,51.2209631,0
          15.3927793,51.2312838,0
          15.4525184,51.239453,0
          15.4944043,51.2544971,0
          15.5500234,51.2673882,0
          15.5898497,51.2618029,0
          15.6193759,51.2613733,0
          15.647529,51.2605141,0
          15.7251212,51.2639521,0
          15.7931002,51.2742633,0
          15.8342997,51.2781294,0
          15.894039,51.2764117,0
          15.9668252,51.2519213,0
          16.0073381,51.2416058,0
          16.0245045,51.2446149,0
          16.0739443,51.2213977,0
          16.1247571,51.2119356,0
          16.1556568,51.2093548,0
          16.1872431,51.2067738,0
          16.2057829,51.2020415,0
          16.2305025,51.2050533,0
          16.286122,51.1934363,0
          16.3080953,51.1852596,0
          16.3376215,51.1818164,0
          16.3705813,51.1740682,0
          16.3980476,51.1719158,0
          16.425514,51.174499,0
          16.4577869,51.1757906,0
          16.48594,51.1697636,0
          16.5147796,51.1667499,0
          16.5429326,51.1633053,0
          16.5800122,51.1645973,0
          16.6157185,51.1628752,0
          16.646618,51.16632,0
          16.6898775,51.162445,0
          16.7413769,51.1602921,0
          16.785323,51.1590004,0
          16.8423158,51.1478027,0
          16.9020551,51.1430645,0
          16.9350148,51.1391874,0
          16.9672879,51.1331556,0
          17.000934,51.135741,0
          17.0338937,51.1344486,0
          17.0579266,51.1404806,0
          17.0695998,51.1361723,0
          17.101186,51.1434964,0
          17.109426,51.1417733,0
          17.1870177,51.1800995,0
          17.2405769,51.1938721,0
          17.3092426,51.2011874,0
          17.3360222,51.2059201,0
          17.3531885,51.216244,0
          17.3840882,51.2136634,0
          17.4712936,51.2269961,0
          17.5289727,51.2394652,0
          17.5612454,51.25279,0
          17.5722318,51.2596659,0
          17.6051914,51.2643927,0
          17.6354041,51.2828646,0
          17.6669903,51.291883,0
          17.7061296,51.3073392,0
          17.7397759,51.3077686,0
          17.796082,51.2961776,0
          17.8379682,51.2953191,0
          18.0158127,51.2880201,0
          18.0425923,51.2987551,0
          18.093405,51.2991847,0
          18.1256779,51.2974674,0
          18.147651,51.300473,0
          18.1634441,51.2970383,0
          18.2362299,51.3039079,0
          18.2877293,51.3026203,0
          18.3357954,51.3039085,0
          18.3701281,51.3107768,0
          18.4044611,51.3103477,0
          18.4127009,51.3163566,0
          18.4333006,51.3163567,0
          18.4401672,51.3245103,0
          18.4497803,51.3288012,0
          18.4992197,51.3283725,0
          18.5198191,51.3472474,0
          18.5637654,51.3468187,0
          18.5864251,51.3425297,0
          18.618698,51.3451035,0
          18.6804972,51.3515369,0
          18.7182634,51.3532524,0
          18.7361165,51.3562543,0
          18.7539696,51.3558256,0
          18.8137084,51.3884035,0
          18.9359329,51.4380833,0
          19.0279453,51.4316627,0
          19.0547248,51.4410801,0
          19.0959243,51.4419363,0
          19.1515438,51.4329477,0
          19.2627825,51.4346605,0
          19.3280149,51.4397974,0
          19.3822611,51.4256709,0
          19.4523003,51.4243867,0
          19.5264596,51.4192489,0
          19.5813922,51.4153951,0
          19.6404449,51.4098278,0
          19.6809579,51.4051165,0
          19.7324573,51.400833,0
          19.7997501,51.3849805,0
          19.8498763,51.3712656,0
          19.8883293,51.356689,0
          19.9336489,51.3579755,0
          19.9755349,51.3592621,0
          20.0290942,51.3669796,0
          20.067547,51.3712667,0
          20.1142398,51.3686948,0
          20.1767258,51.3725531,0
          20.2165519,51.376411,0
          20.2728578,51.3802687,0
          20.3119974,51.3742684,0
          20.3346571,51.3755544,0
          20.3751699,51.3811263,0
          20.4204893,51.3884116,0
          20.4857217,51.4012651,0
          20.5131882,51.3944106,0
          20.5440877,51.3978383,0
          20.6312936,51.3776988,0
          20.6697465,51.3768418,0
          20.7342926,51.3648395,0
          20.7754921,51.3622673,0
          20.8029585,51.3588373,0
          20.8208116,51.355407,0
          20.8606378,51.3588376,0
          20.8839841,51.3691272,0
          20.9622631,51.3751288,0
          21.0089558,51.3845577,0
          21.0680082,51.3956986,0
          21.1394207,51.4034101,0
          21.2067133,51.3956992,0
          21.5967359,51.3579834,0
          21.6695217,51.352838,0
          21.7175878,51.3588415,0
          21.7972405,51.3313919,0
          21.8480531,51.3391141,0
          21.8974927,51.3228108,0
          21.9153459,51.3245273,0
          21.9208391,51.3176612,0
          21.9771453,51.309936,0
          22.0293315,51.2961986,0
          22.1213438,51.2927639,0
          22.1694099,51.2936229,0
          22.2298359,51.2876114,0
          22.2998753,51.2695715,0
          22.3644211,51.275586,0
          22.4248473,51.2626977,0
          22.4784067,51.2566821,0
          22.5278462,51.2472272,0
          22.6116188,51.2257314,0
          22.6816583,51.1990626,0
          22.7379644,51.1818488,0
          22.8203639,51.1456786,0
          22.8739233,51.1422325,0
          22.9343491,51.1491251,0
          22.9892818,51.1620456,0
          23.0826672,51.166352,0
          23.181546,51.1758241,0
          23.2584518,51.1766854,0
          23.340851,51.1637695,0
          23.3999036,51.1637698,0
          23.4520898,51.1448196,0
          23.518009,51.1448199,0
          23.6759404,51.1654933,0
          23.7720724,51.1809921,0
          23.783059,51.1775485,0
          23.818765,51.1956249,0
          23.9258836,51.2068119,0
          23.9560967,51.1973467,0
          24.3543586,51.2136962,0
          24.5782095,51.2119764,0
          24.7018082,51.19821,0
          24.7320213,51.1852999,0
          24.7842071,51.2033734,0
          24.8707262,51.2042341,0
          25.1412693,51.2437987,0
          25.2950808,51.256693,0
          25.6013306,51.2618506,0
          25.723556,51.2386422,0
          25.9089538,51.2506784,0
          26.0600187,51.2558361,0
          26.1753772,51.273023,0
          26.260523,51.2687273,0
          26.3813748,51.2919213,0
          26.4500407,51.2867684,0
          26.4884935,51.294498,0
          26.5434262,51.2944982,0
          26.6189585,51.3193957,0
          26.720584,51.3202543,0
          26.8743959,51.2747435,0
          27.0048611,51.2850523,0
          27.0597939,51.2670112,0
          27.3536845,51.1896124,0
          27.4031239,51.1939159,0
          27.5926419,51.1655067,0
          27.6860275,51.1689515,0
          27.9153721,51.0965625,0
          28.0252377,51.0784476,0
          28.0760504,51.0888002,0
          28.1460896,51.0758595,0
          28.2408485,51.0870754,0
          28.3424741,51.0620525,0
          28.4798062,51.0223332,0
          28.5416056,51.003325,0
          28.6020315,51.0093742,0
          28.7476035,50.9696096,0
          28.8258829,50.929811,0
          28.882189,50.9124967,0
          28.9687081,50.8960421,0
          29.0442407,50.8761157,0
          29.1307598,50.8579145,0
          29.2351321,50.8362372,0
          29.4150371,50.7641959,0
          29.4150372,50.7555087,0
          29.5757155,50.7320455,0
          29.6237816,50.7337841,0
          29.7006875,50.7129187,0
          29.7954466,50.6755114,0
          29.9451385,50.630235,0
          30.0687372,50.5788107,0
          30.1772295,50.5447876,0
          30.218429,50.557004,0
          30.3173079,50.5474059,0
          30.3653742,50.5151066,0
          30.4024538,50.5203459,0
          30.4354133,50.5107403,0
          30.4711196,50.5063735,0
          30.5095727,50.4854068,0
          30.5397856,50.4923968,0
          30.6002116,50.4950179,0
          30.6331713,50.4688018,0
          30.8226889,50.5116144,0
          30.8556486,50.4915238,0
          30.8954748,50.4862814,0
          30.9147013,50.4679283,0
          30.9600209,50.4469446,0
          31.0492865,50.4539403,0
          31.1907383,50.4207022,0
          31.2758842,50.362917,0
          31.3321903,50.3681732,0
          31.4626556,50.311201,0
          31.5148417,50.3173399,0
          31.7222127,50.284006,0
          31.8870109,50.2778632,0
          32.0202226,50.269964,0
          32.1561811,50.2541614,0
          32.2056206,50.2313261,0
          32.3264724,50.2559179,0
          32.4528176,50.2488932,0
          32.5434568,50.2023274,0
          32.6025096,50.1486765,0
          32.6766687,50.1398756,0
          32.8469604,50.0482496,0
          32.9128795,50.045604,0
          33.0405982,50.0032536,0
          33.077678,49.9582153,0
          33.1367309,49.860045,0
          33.2411031,49.8175312,0
          33.3015291,49.7873946,0
          33.344102,49.7510285,0
          33.4278745,49.7075307,0
          33.4786873,49.6799915,0
          33.6640851,49.6488804,0
          33.6517252,49.6764371,0
          33.7794438,49.6639942,0
          33.7945502,49.6817691,0
          33.9181488,49.6559936,0
          34.0005478,49.6346518,0
          34.0321342,49.5999513,0
          34.0637205,49.585708,0
          34.1282664,49.5821466,0
          34.1983055,49.5928303,0
          34.2930643,49.6026217,0
          34.3521169,49.6026217,0
          34.4509959,49.5598818,0
          34.5773409,49.5509732,0
          34.6309003,49.5527551,0
          34.6666067,49.5295852,0
          34.7270326,49.5055127,0
          34.7943251,49.4894579,0
          34.8368981,49.4582248,0
          34.8959507,49.4403683,0
          34.9110573,49.3965927,0
          35.0099362,49.3241431,0
          35.060749,49.2981785,0
          35.1156816,49.2856389,0
          35.1376547,49.2865347,0
          35.1321615,49.2309649,0
          35.2049473,49.2300682,0
          35.2488935,49.2031566,0
          35.3395324,49.1950804,0
          35.3889717,49.1726393,0
          35.4013317,49.1465949,0
          35.4658775,49.1349153,0
          35.5771162,49.1250306,0
          35.645782,49.1331183,0
          35.6952213,49.14929,0
          35.7652605,49.14929,0
          35.8243131,49.139408,0
          35.888859,49.120537,0
          35.9231919,49.0962636,0
          35.9794979,49.0827733,0
          36.0261907,49.0701791,0
          36.0989765,49.0350782,0
          36.1594024,49.0044571,0
          36.2404282,48.9765216,0
          36.2981074,48.9602938,0
          36.3448002,48.9458646,0
          36.4024794,48.9521778,0
          36.4381857,48.9332357,0
          36.499985,48.9224083,0
          36.578264,48.8998437,0
          36.6359432,48.9404526,0
          36.6496764,48.9260177,0
          36.7375686,48.8998438,0
          36.7897547,48.846551,0
          36.851554,48.8284728,0
          36.8680338,48.8131011,0
          36.9669125,48.7904873,0
          37.0451915,48.7379838,0
          37.1248439,48.7053678,0
          37.1536835,48.6799852,0
          37.1825232,48.6400723,0
          37.1962564,48.5946784,0
          37.2305893,48.5855948,0
          37.2937618,48.6128409,0
          37.3569344,48.611025,0
          37.4173603,48.6001279,0
          37.464053,48.5992197,0
          37.4970125,48.611933,0
          37.568425,48.5901369,0
          37.5986379,48.5746923,0
          37.6068778,48.5819609,0
          37.6549439,48.5501529,0
          37.6933968,48.5274207,0
          37.7620625,48.5028584,0
          37.825235,48.4882973,0
          37.8485814,48.4673585,0
          37.8980207,48.4272775,0
          37.9323537,48.4026667,0
          37.9914062,48.3953723,0
          38.0394723,48.3534093,0
          38.1438443,48.312325,0
          38.1809238,48.3132384,0
          38.2413497,48.3196313,0
          38.3196287,48.3031907,0
          38.3855478,48.3022772,0
          38.4116408,48.3223709,0
          38.6011583,48.2766919,0
          38.7741961,48.2062663,0
          39.0241395,48.144908,0
          39.0378726,48.1274945,0
          39.1037917,48.1091582,0
          39.1669642,48.0421748,0
          39.22739,48.0302372,0
          39.3070423,47.9999214,0
          39.3523617,47.9861356,0
          39.3784547,47.9888931,0
          39.5226527,47.8876902,0
          39.5954384,47.8738745,0
          39.6077982,47.8489969,0
          39.6572376,47.8655832,0
          39.6599842,47.8434669,0
          39.7011836,47.7964382,0
          39.7822092,47.8148858,0
          39.8261553,47.803818,0
          39.9003143,47.7881345,0
          39.9415137,47.7530603,0
          40.0335258,47.7401322,0
          40.1145513,47.6976316,0
          40.1900836,47.7096462,0
          40.243643,47.6957829,0
          40.3782278,47.6735942,0
          40.4262938,47.6893121,0
          40.4757332,47.6597214,0
          40.5801051,47.6541711,0
          40.688597,47.6615711,0
          40.7297965,47.6920851,0
          40.8025821,47.6865385,0
          40.8437816,47.6680451,0
          40.9055807,47.6717443,0
          40.9357937,47.6532458,0
          40.9920996,47.6745184,0
          41.0511521,47.6384423,0
          41.1417909,47.6384422,0
          41.1898569,47.6384421,0
          41.2695092,47.6513953,0
          41.3340549,47.6458442,0
          41.4013474,47.6671198,0
          41.4425468,47.6587956,0
          41.5070926,47.6356656,0
          41.5633985,47.6356656,0
          41.6348109,47.639367,0
          41.7597826,47.6356654,0
          41.9177139,47.6735928,0
          42.0056061,47.6652695,0
          42.0742717,47.6301125,0
          42.0797649,47.5995622,0
          42.1250842,47.5541665,0
          42.1717768,47.512442,0
          42.2143495,47.5031654,0
          42.2747752,47.4614003,0
          42.3338277,47.4456138,0
          42.4162266,47.4130971,0
          42.527465,47.4103088,0
          42.5892641,47.4056616,0
          42.6785297,47.3982253,0
          42.7623018,47.402873,0
          42.8254743,47.4130965,0
          42.9312195,47.37684,0
          42.9957652,47.3693996,0
          43.0575643,47.3359051,0
          43.1028836,47.3228738,0
          43.2113754,47.3005267,0
          43.3239871,47.290281,0
          43.4311056,47.2586005,0
          43.5162511,47.2511434,0
          43.6068899,47.2492788,0
          43.9007788,47.1316884,0
          44.0408569,47.1541064,0
          44.1672018,47.1391618,0
          44.2633338,47.1428981,0
          44.3127731,47.1204752,0
          44.4034119,47.1279503,0
          44.4967971,47.0924329,0
          44.6423683,47.060634,0
          44.8126592,47.0494061,0
          44.9197777,47.0381758,0
          45.0818286,47.0138358,0
          45.1807074,47.026943,0
          45.3564914,46.991358,0
          45.4443836,46.9913578,0
          45.551502,46.9782415,0
          45.6091812,46.9763674,0
          45.6778467,46.9482495,0
          45.7520057,46.9426241,0
          45.8371512,46.9388733,0
          45.9305366,46.9444988,0
          46.0239219,46.9257439,0
          46.1447734,46.8975993,0
          46.2463985,46.88446,0
          46.3370372,46.8638062,0
          46.4441556,46.8581717,0
          46.5485275,46.8656836,0
          46.6391661,46.8356286,0
          46.7325514,46.8262327,0
          46.8451633,46.837507,0
          46.9055891,46.8412644,0
          46.9330554,46.8412643,0
          47.0401738,46.8375065,0
          47.0731335,46.8544137,0
          47.1060932,46.8825806,0
          47.2077185,46.9088563,0
          47.2599047,46.9369946,0
          47.3175839,46.9557452,0
          47.4027294,46.9707409,0
          47.649925,46.7886317,0
          47.8312022,46.7604149,0
          47.9657869,46.7303009,0
          48.1003714,46.6945187,0
          48.152557,46.6455154,0
          48.2102361,46.6247699,0
          48.2706617,46.5832549,0
          48.391513,46.5341507,0
          48.531591,46.5360398,0
          48.6579359,46.5473746,0
          48.8309734,46.5322599,0
          48.9573184,46.5605951,0
          49.1138763,46.5757009,0
          49.2100084,46.6002393,0
          49.3226202,46.6077871,0
          49.3638197,46.6341972,0
          49.3748065,46.6756728,0
          49.4544589,46.700166,0
          49.6357364,46.7171159,0
          49.7593347,46.7321781,0
          49.8746932,46.7415897,0
          49.9570921,46.7641716,0
          50.0971706,46.8281023,0
          50.2125292,46.858161,0
          50.3773274,46.9369853,0
          50.3965539,46.9482365,0
          50.517406,47.0044568,0
          50.6052981,47.0138209,0
          50.6519908,47.021311,0
          50.786576,47.0755839,0
          50.8524954,47.1092429,0
          50.932148,47.1578238,0
          50.9815874,47.1802307,0
          51.0804666,47.2492596,0
          51.1628659,47.3181987,0
          51.1930791,47.3628679,0
          51.2569632,47.4376706,0
          51.4593612,47.5101112,0
          51.5659318,47.6385618,0
          51.674172,47.4466135,0
          51.9017075,47.1503491,0
          52.0829852,47.1802266,0
          52.2697554,47.1279279,0
          52.5032187,47.1167136,0
          52.6542829,47.0793179,0
          52.8026007,47.0718351,0
          52.939932,47.068093,0
          53.0772631,47.0306632,0
          53.2283273,46.998827,0
          53.3848847,46.9575993,0
          53.4782699,46.9407241,0
          53.7007466,46.9388478,0
          53.8545577,46.9369719,0
          53.9699164,46.965095,0
          54.0330885,46.9294689,0
          54.0715406,46.867536,0
          54.1402057,46.7998911,0
          54.1566848,46.7321613,0
          54.1182315,46.6813082,0
          54.2226026,46.6058817,0
          54.2885211,46.5454647,0
          54.3050006,46.5190112,0
          54.3461991,46.4225359,0
          54.3819048,46.3732866,0
          54.4038772,46.3201993,0
          54.3956368,46.2518684,0
          54.5000079,46.1815502,0
          54.51374,46.0806679,0
          54.5933917,46.0311105,0
          54.6702964,45.9433234,0
          54.7197352,45.8879078,0
          55.2086289,45.3075325,0
          55.785417,45.0092666,0
          56.8675805,44.3962775,0
          57.5871907,43.9233757,0
          58.0870718,43.5423263,0
          58.1420032,43.4347198,0
          58.3562385,43.3269208,0
          58.7847083,43.0465503,0
          59.0608317,42.7302731,0
          59.3889583,42.445478,0
          59.6800995,42.4089836,0
          59.8943355,42.3805843,0
          60.0041997,42.3278106,0
          60.1360367,42.2627975,0
          60.2129419,42.2505997,0
          60.3008331,42.1936473,0
          60.366751,42.116273,0
          60.3722436,42.0551214,0
          60.4821081,42.0265632,0
          60.6249316,41.9734928,0
          60.65789,41.8835819,0
          60.6688752,41.7566745,0
          60.7402866,41.6992786,0
          60.9490281,41.5699501,0
          61.0394156,41.5471835,0
          61.0531484,41.5142855,0
          61.2206909,41.4041606,0
          61.4088332,41.3258272,0
          61.6560283,41.2824962,0
          61.7425467,41.2814636,0
          61.9924863,41.0592027,0
          62.0748847,41.0467748,0
          62.6708951,40.5769647,0
          62.7697733,40.5832221,0
          63.2778939,40.2905485,0
          63.2833866,40.2402486,0
          63.4921281,40.1353356,0
          63.7777764,40.1647253,0
          63.9260933,40.1290328,0
          64.1677942,40.0344633,0
          64.3408287,39.8491499,0
          64.4445363,39.8681289,0
          64.4424528,39.7879706,0
          64.4781582,39.7394107,0
          64.6127416,39.6844748,0
          64.6951388,39.5808243,0
          64.8214821,39.4982156,0
          64.9588119,39.4303604,0
          65.0961418,39.3624391,0
          65.1373399,39.2731931,0
          65.2801631,39.2072472,0
          65.4257328,39.1348482,0
          65.5603162,39.083698,0
          65.626234,39.0154408,0
          65.7772964,38.8958317,0
          65.8596944,38.8626854,0
          65.7772958,38.8466486,0
          65.7882817,38.8038529,0
          66.1041402,38.6431379,0
          66.1563255,38.6130978,0
          66.25795,38.6023656,0
          66.3348543,38.5336453,0
          66.3568268,38.497111,0
          66.411759,38.494961,0
          66.439224,38.4067703,0
          66.4666894,38.3507887,0
          66.7628646,38.2902281,0
          67.0485112,38.203944,0
          67.0155493,37.9964502,0
          67.0704793,37.8230883,0
          66.9716003,37.7362552,0
          67.1885783,37.3900817,0
          67.3780937,37.3267687,0
          67.4303185,37.225287,0
          67.3149599,37.1596486,0
          67.3067176,36.9514147,0
          67.3891138,36.7800164,0
          67.6281628,36.7470979,0
          67.7022263,36.6875636,0
          67.784623,36.564123,0
          67.8423011,36.4957046,0
          68.0675198,36.2302895,0
          68.4904967,36.1504858,0
          68.7486751,35.9194931,0
          68.7541663,35.7502641,0
          68.6992325,35.6164082,0
          68.9958662,35.6164057,0
          69.2375681,35.6476569,0
          69.3034874,35.696744,0
          69.5287083,35.6164013,0
          69.6935051,35.6297957,0
          69.7704107,35.6744313,0
          69.8967539,35.6163983,0
          69.8528057,35.4286226,0
          69.7154754,35.4330998,0
          69.5616639,35.3256095,0
          69.4627852,35.2538696,0
          69.3364407,35.2179765,0
          69.276015,35.191046,0
          69.2924933,35.0787372,0
          69.3803837,34.9932783,0
          69.4627813,34.939258,0
          69.5946187,34.9617694,0
          69.6165909,34.8987186,0
          69.6495486,34.781496,0
          69.6934926,34.6324733,0
          69.7868764,34.5691698,0
          69.8363146,34.5103451,0
          70.0835093,34.510343,0
          70.2592921,34.501288,0
          70.3087315,34.5420209,0
          70.3691565,34.5103406,0
          70.3801424,34.4650628,0
          70.5614172,34.3608293,0
          70.572403,34.3154705,0
          70.8470628,34.2473841,0
          70.9734067,34.2428421,0
          71.0832703,34.1837872,0
          71.1053229,34.1066353,0
          71.2591323,34.0611382,0
          71.292091,34.0156177,0
          71.4260434,33.9935425,0
          72.121566,33.9928411,0
          72.2424152,33.8834626,0
          72.4731299,33.8652173,0
          72.5555273,33.8104636,0
          72.698351,33.8241538,0
          72.7868835,33.9125496,0
          72.9181492,33.9495536,0
          72.8631455,33.6825673,0
          72.9235701,33.6276969,0
          73.1103386,33.5682134,0
          73.209215,33.4582923,0
          73.2531596,33.3757602,0
          73.3245694,33.2334379,0
          73.4399255,33.1276934,0
          73.5168294,33.0494525,0
          73.6541592,33.0172144,0
          73.7200765,32.9296546,0
          73.840926,32.8420076,0
          73.961776,32.7958422,0
          74.2089685,32.6525783,0
          74.3188319,32.5878032,0
          74.5165863,32.5044514,0
          74.6429294,32.4488407,0
          74.7857514,32.3421585,0
          74.9450527,32.2121147,0
          75.005476,32.0679215,0
          75.0713933,31.9747725,0
          75.1263244,31.9048485,0
          75.2032279,31.8021974,0
          75.4614075,31.7134503,0
          75.6866282,31.648003,0
          75.823957,31.5497476,0
          75.9393136,31.4982386,0
          76.065655,31.3247758,0
          76.131572,31.2167862,0
          76.2359418,31.1274837,0
          76.362284,31.0192682,0
          76.5106,30.9721787,0
          76.5435575,30.8449246,0
          76.6314472,30.7316673,0
          76.8738796,30.7027456,0
          76.7852554,30.6182762,0
          76.9225845,30.5426078,0
          77.0873789,30.4147844,0
          77.1587894,30.3342173,0
          77.2576662,30.2678177,0
          77.296117,30.1491366,0
          77.3675272,30.035068,0
          77.4993634,29.9874995,0
          77.6916231,29.8113012,0
          77.6806353,29.7063883,0
          77.8564157,29.5535901,0
          77.9333189,29.4292718,0
          77.9662773,29.3718428,0
          78.1640328,29.3862009,0
          78.3617849,29.1561926,0
          78.4991136,29.055401,0
          78.6364423,28.9545107,0
          78.7517973,28.7957712,0
          78.8781412,28.8150238,0
          79.0539226,28.7476177,0
          79.1582914,28.5982095,0
          79.2297019,28.5161855,0
          79.3890026,28.3664477,0
          79.6746481,28.2939157,0
          79.7845124,28.322932,0
          79.9987459,28.2310139,0
          80.136076,28.2406915,0
          80.3393229,28.1341709,0
          80.5041173,28.0178464,0
          80.7073645,27.9353729,0
          80.96005,27.8188327,0
          81.0754057,27.7167586,0
          81.2347073,27.6291895,0
          81.311611,27.5561625,0
          81.6137366,27.5366773,0
          81.7840256,27.5269332,0
          82.0202326,27.4976987,0
          82.0202587,27.2977659,0
          82.2070003,27.4294587,0
          82.3388377,27.478203,0
          82.4871548,27.5269254,0
          82.635471,27.5269238,0
          82.8002665,27.49769,0
          82.8661856,27.5512752,0
          83.0694336,27.5269189,0
          83.2012701,27.5123024,0
          83.3056404,27.4879386,0
          83.5748075,27.5171701,0
          83.7066449,27.5707449,0
          83.8220019,27.5610044,0
          83.9922917,27.6145574,0
          84.1131425,27.6437568,0
          84.3548436,27.6826762,0
          84.448229,27.7507557,0
          84.4592165,27.8236517,0
          84.5141486,27.8333669,0
          84.5526018,27.8867879,0
          84.6459857,27.8625076,0
          84.6899305,27.8090738,0
          84.8107808,27.8090724,0
          84.9041652,27.8090713,0
          84.9810698,27.8042115,0
          85.0469876,27.7701925,0
          85.1458646,27.7313004,0
          85.2007957,27.6778019,0
          85.3106591,27.643743,0
          85.3546053,27.6875289,0
          85.3545004,27.6980714,0
          85.3481488,27.6857594,0
          85.3488353,27.6778547,0
          85.3543284,27.6751182,0
          85.3553585,27.680895,0
          85.3502086,27.6818071,0
          85.3611952,27.6915355,0
          85.3519254,27.6877355,0
          85.3440289,27.6900156,0
          85.3596501,27.6831751,0
          85.3397373,27.6833274,0
          85.3505518,27.673598,0
          85.3608517,27.6805909,0
          85.3411106,27.6874316,0
          85.3448871,27.6813511,0
          85.3618817,27.6860633,0
          85.3455739,27.6933596,0
          85.358792,27.6950314,0
          85.3397372,27.6781588,0
          85.3479769,27.6714697,0
          85.3660016,27.6837831,0
          85.3457457,27.6995914,0
          85.3526117,27.6702534,0
          85.3608516,27.6755742,0
          85.3412824,27.6938157,0
          85.3510391,27.6976744,0
          85.3441725,27.6874905,0
          85.3671752,27.6896183,0
          85.3385075,27.67989,0
          85.3642569,27.6838421,0
          85.3656301,27.6803457,0
          85.3520688,27.6792818,0
          85.3594502,27.6725927,0
          85.3618535,27.6785216,0
          85.3455456,27.6750253,0
          85.3383359,27.6821702,0
          85.3412543,27.6914426,0
          85.3433143,27.6982824,0
          85.3491509,27.7002582,0
          85.3579056,27.6978263,0
          85.3627121,27.6941783,0
          85.3651153,27.6920503,0
          85.3671752,27.6865782,0
          85.3678618,27.6818658,0
          85.3651151,27.6777614,0
          85.3618535,27.6738089,0
          85.3570469,27.6710724,0
          85.3501804,27.6713766,0
          85.340224,27.6753294,0
          85.3364476,27.6808021,0
          85.337306,27.6884026,0
          85.339366,27.6963066,0
          85.3419411,27.7011702,0
          85.3488076,27.702538,0
          85.3544724,27.701626,0
          85.3594506,27.6996501,0
          85.3633988,27.6975222,0
          85.3656304,27.6955463,0
          85.3697502,27.6896183,0
          85.3702651,27.683994,0
          85.370265,27.6800416,0
          85.3680334,27.6770013,0
          85.3651151,27.6739609,0
          85.3613384,27.6700082,0
          85.3570468,27.6681839,0
          85.3501803,27.6677278,0
          85.3452022,27.6698563,0
          85.3409106,27.6718328,0
          85.3367908,27.6748733,0
          85.3340443,27.67913,0
          85.333701,27.6841464,0
          85.3345594,27.6903787,0
          85.3361044,27.6950906,0
          85.3390228,27.7005623,0
          85.3424561,27.7039059,0
          85.3481209,27.7045138,0
          85.3549874,27.7045137,0
          85.3618539,27.7023859,0
          85.3666604,27.6987381,0
          85.3711235,27.6937223,0
          85.3726684,27.6902262,0
          85.373355,27.6864261,0
          85.37387,27.6817138,0
          85.3711233,27.6763932,0
        </coordinates>
      </LineString>
    </Placemark>
  </Document>
</kml>
